CCSDS_OMM_VERS,COMMENT,CREATION_DATE,ORIGINATOR,OBJECT_NAME,OBJECT_ID,CENTER_NAME,REF_FRAME,TIME_SYSTEM,MEAN_ELEMENT_THEORY,EPOCH,MEAN_MOTION,ECCENTRICITY,INCLINATION,RA_OF_ASC_NODE,ARG_OF_PERICENTER,MEAN_ANOMALY,EPHEMERIS_TYPE,CLASSIFICATION_TYPE,NORAD_CAT_ID,ELEMENT_SET_NO,REV_AT_EPOCH,BSTAR,MEAN_MOTION_DOT,MEAN_MOTION_DDOT,SEMIMAJOR_AXIS,PERIOD,APOAPSIS,PERIAPSIS,OBJECT_TYPE,RCS_SIZE,COUNTRY_CODE,LAUNCH_DATE,SITE,DECAY_DATE,FILE,GP_ID,TLE_LINE0,TLE_LINE1,TLE_LINE2,NORAD_KEY
3.0,GENERATED VIA SPACE-TRACK.ORG API,2026-05-06T14:56:52,18 SPCS,SUPERBIRD 4,2000-012A,EARTH,TEME,UTC,SGP4,2026-05-06T11:46:10.312032,0.98851599,0.0012871,8.1865,65.1527,157.8539,298.2916,0,U,26095,999,4436,0.00000000000000,-0.00000176,0.0000000000000,42567.621,1456.729,36244.274,36134.697,PAYLOAD,LARGE,JPN,2000-02-18,FRGUI,,5177582,322307209,0 SUPERBIRD 4,1 26095U 00012A   26126.49039713 -.00000176  00000-0  00000+0 0  9992,2 26095   8.1865  65.1527 0012871 157.8539 298.2916  0.98851599 44363,26095
3.0,GENERATED VIA SPACE-TRACK.ORG API,2026-05-06T02:32:52,18 SPCS,JCSAT 2A,2002-015A,EARTH,TEME,UTC,SGP4,2026-05-05T17:13:46.746624,0.99029804,0.00043222,8.2013,64.6734,55.6979,133.3475,0,U,27399,999,8823,0.00000000000000,-0.00000253,0.0000000000000,42516.538,1454.108,36156.78,36120.027,PAYLOAD,LARGE,JPN,2002-03-29,FRGUI,,5176277,322217016,0 JCSAT 2A,1 27399U 02015A   26125.71790216 -.00000253  00000-0  00000-0 0  9998,2 27399   8.2013  64.6734 0004322  55.6979 133.3475  0.99029804 88236,27399
3.0,GENERATED VIA SPACE-TRACK.ORG API,2026-05-06T14:56:52,18 SPCS,INTELSAT 12 (PAS 12),2000-068A,EARTH,TEME,UTC,SGP4,2026-05-06T13:12:15.862176,0.99030663,0.0010605,8.2348,64.8861,212.7757,340.6887,0,U,26590,999,5108,0.00000000000000,-0.00000055,0.0000000000000,42516.292,1454.095,36183.246,36093.069,PAYLOAD,LARGE,ESA,2000-10-29,FRGUI,,5177594,322307353,0 INTELSAT 12 (PAS 12),1 26590U 00068A   26126.55018359 -.00000055  00000-0  00000+0 0  9999,2 26590   8.2348  64.8861 0010605 212.7757 340.6887  0.99030663 51081,26590
3.0,GENERATED VIA SPACE-TRACK.ORG API,2026-05-06T14:46:56,18 SPCS,RADUGA 12,1983-028A,EARTH,TEME,UTC,SGP4,2026-05-06T11:45:10.576800,1.00255402,0.0001986,8.2826,306.5986,12.3953,149.7661,0,U,13974,999,16896,0.00000000000000,-0.00000025,0.0000000000000,42169.325,1436.332,35799.565,35782.816,PAYLOAD,LARGE,CIS,1983-04-08,TTMTR,,5177256,322300561,0 RADUGA 12,1 13974U 83028A   26126.48970575 -.00000025  00000-0  00000+0 0  9994,2 13974   8.2826 306.5986 0001986  12.3953 149.7661  1.00255402168969,13974
3.0,GENERATED VIA SPACE-TRACK.ORG API,2026-05-06T10:08:52,18 SPCS,HISPASAT 1C,2000-007A,EARTH,TEME,UTC,SGP4,2026-05-06T04:24:49.455072,0.99206322,0.00041623,8.2891,64.104,247.8625,302.712,0,U,26071,999,4687,0.00000000000000,-0.00000243,0.0000000000000,42466.09,1451.52,36105.631,36070.279,PAYLOAD,LARGE,SPN,2000-02-03,AFETR,,5176958,322265983,0 HISPASAT 1C,1 26071U 00007A   26126.18390573 -.00000243  00000-0  00000-0 0  9996,2 26071   8.2891  64.1040 0004162 247.8625 302.7120  0.99206322 46871,26071
3.0,GENERATED VIA SPACE-TRACK.ORG API,2026-05-06T14:46:56,18 SPCS,OPS 9442 (DSCS 2-12),1978-113B,EARTH,TEME,UTC,SGP4,2026-05-06T13:41:21.283008,0.98439226,0.0003953,8.3414,303.4283,174.9918,30.8247,0,U,11145,999,11665,0.00000000000000,0.00000015,0.0000000000000,42686.418,1462.831,36325.157,36291.409,PAYLOAD,LARGE,US,1978-12-14,AFETR,,5177209,322298476,0 OPS 9442 (DSCS 2-12),1 11145U 78113B   26126.57038522  .00000015  00000-0  00000+0 0  9996,2 11145   8.3414 303.4283 0003953 174.9918  30.8247  0.98439226116652,11145
3.0,GENERATED VIA SPACE-TRACK.ORG API,2026-05-06T14:46:56,18 SPCS,INTELSAT 4-F1,1975-042A,EARTH,TEME,UTC,SGP4,2026-05-05T17:41:40.261920,0.99265338,0.0010983,8.3439,306.4542,277.4495,82.3355,0,U,7815,999,12153,0.00000000000000,-0.00000158,0.0000000000000,42449.257,1450.657,36117.744,36024.5,PAYLOAD,LARGE,ITSO,1975-05-22,AFETR,,5177160,322297342,0 INTELSAT 4-F1,1  7815U 75042A   26125.73727155 -.00000158  00000-0  00000+0 0  9996,2  7815   8.3439 306.4542 0010983 277.4495  82.3355  0.99265338121536,7815
3.0,GENERATED VIA SPACE-TRACK.ORG API,2026-05-06T10:08:52,18 SPCS,INSAT 3C,2002-002A,EARTH,TEME,UTC,SGP4,2026-05-05T23:37:25.774176,0.99300435,0.00097534,8.3474,63.9629,151.3537,39.4912,0,U,27298,999,8867,0.00000000000000,0.00000067,0.0000000000000,42439.254,1450.145,36102.511,36019.726,PAYLOAD,LARGE,IND,2002-01-23,FRGUI,,5176958,322266216,0 INSAT 3C,1 27298U 02002A   26125.98432609  .00000067  00000-0  00000-0 0  9992,2 27298   8.3474  63.9629 0009753 151.3537  39.4912  0.99300435 88670,27298
3.0,GENERATED VIA SPACE-TRACK.ORG API,2026-05-06T14:46:56,18 SPCS,COSMOS 1366,1982-044A,EARTH,TEME,UTC,SGP4,2026-05-06T11:15:24.840000,1.00285662,0.0008618,8.3953,297.6939,118.61,56.3024,0,U,13177,999,13319,0.00000000000000,-0.00000138,0.0000000000000,42160.842,1435.898,35819.041,35746.373,PAYLOAD,MEDIUM,CIS,1982-05-17,TTMTR,,5177244,322299913,0 COSMOS 1366,1 13177U 82044A   26126.46903750 -.00000138  00000-0  00000+0 0  9990,2 13177   8.3953 297.6939 0008618 118.6100  56.3024  1.00285662133191,13177
3.0,GENERATED VIA SPACE-TRACK.ORG API,2026-05-06T10:08:52,18 SPCS,AMOS 2,2003-059A,EARTH,TEME,UTC,SGP4,2026-05-06T02:45:42.289920,0.99400773,1.62e-05,8.4188,63.4493,115.1631,63.6302,0,U,28132,999,8162,0.00000000000000,-0.00000238,0.0000000000000,42410.69,1448.681,36033.242,36031.868,PAYLOAD,LARGE,ISRA,2003-12-27,TTMTR,,5176958,322266394,0 AMOS 2,1 28132U 03059A   26126.11507280 -.00000238  00000-0  00000-0 0  9998,2 28132   8.4188  63.4493 0000162 115.1631  63.6302  0.99400773 81629,28132
3.0,GENERATED VIA SPACE-TRACK.ORG API,2026-05-06T10:08:52,18 SPCS,WINDS (KIZUNA),2008-007A,EARTH,TEME,UTC,SGP4,2026-05-06T02:52:04.179648,1.00293772,5.233e-05,8.4318,62.6336,75.6091,128.6279,0,U,32500,999,6647,0.00000000000000,0.00000002,0.0000000000000,42158.569,1435.782,35782.64,35778.228,PAYLOAD,LARGE,JPN,2008-02-23,TNSTA,,5176958,322268622,0 WINDS (KIZUNA),1 32500U 08007A   26126.11949282  .00000002  00000-0  00000-0 0  9990,2 32500   8.4318  62.6336 0000523  75.6091 128.6279  1.00293772 66479,32500
3.0,GENERATED VIA SPACE-TRACK.ORG API,2026-05-06T14:46:56,18 SPCS,GORIZONT 5,1982-020A,EARTH,TEME,UTC,SGP4,2026-05-06T12:18:17.404416,0.98534704,0.0032576,8.4392,301.4706,257.5656,7.8319,0,U,13092,999,12118,0.00000000000000,-0.00000237,0.0000000000000,42658.839,1461.414,36419.669,36141.738,PAYLOAD,LARGE,CIS,1982-03-15,TTMTR,,5177243,322299397,0 GORIZONT 5,1 13092U 82020A   26126.51270144 -.00000237  00000-0  00000+0 0  9990,2 13092   8.4392 301.4706 0032576 257.5656   7.8319  0.98534704121184,13092
3.0,GENERATED VIA SPACE-TRACK.ORG API,2026-05-06T14:56:52,18 SPCS,EUTE 8 WEST C (HB 6),2002-038A,EARTH,TEME,UTC,SGP4,2026-05-06T13:25:21.192384,0.99327789,0.0003828,8.4661,63.0912,306.1488,228.0143,0,U,27499,999,5052,0.00000000000000,-0.00000178,0.0000000000000,42431.462,1449.745,36069.57,36037.084,PAYLOAD,LARGE,EUTE,2002-08-21,AFETR,,5177612,322308132,0 EUTE 8 WEST C (HB 6),1 27499U 02038A   26126.55927306 -.00000178  00000-0  00000+0 0  9994,2 27499   8.4661  63.0912 0003828 306.1488 228.0143  0.99327789 50526,27499
3.0,GENERATED VIA SPACE-TRACK.ORG API,2026-05-06T10:08:52,18 SPCS,EUTE 36A (EUTE W4),2000-028A,EARTH,TEME,UTC,SGP4,2026-05-06T05:59:29.295168,0.98469959,0.00107926,8.4871,62.3363,274.6759,273.4172,0,U,26369,999,9471,0.00000000000000,-0.00000095,0.0000000000000,42677.536,1462.375,36345.461,36253.341,PAYLOAD,LARGE,EUTE,2000-05-24,AFETR,,5176958,322266041,0 EUTE 36A (EUTE W4),1 26369U 00028A   26126.24964462 -.00000095  00000-0  00000-0 0  9995,2 26369   8.4871  62.3363 0010793 274.6759 273.4172  0.98469959 94715,26369
3.0,GENERATED VIA SPACE-TRACK.ORG API,2026-05-06T10:08:52,18 SPCS,ECHOSTAR 1,1995-073A,EARTH,TEME,UTC,SGP4,2026-05-06T01:26:38.771808,0.98934929,0.00033449,8.5167,63.3753,313.2773,241.8827,0,U,23754,999,5158,0.00000000000000,-0.00000107,0.0000000000000,42543.715,1455.502,36179.811,36151.35,PAYLOAD,LARGE,US,1995-12-28,XSC,,5176958,322265641,0 ECHOSTAR 1,1 23754U 95073A   26126.06017097 -.00000107  00000-0  00000-0 0  9991,2 23754   8.5167  63.3753 0003345 313.2773 241.8827  0.98934929 51582,23754
3.0,GENERATED VIA SPACE-TRACK.ORG API,2026-05-06T14:56:52,18 SPCS,TELSTAR 12 (ORION 2),1999-059A,EARTH,TEME,UTC,SGP4,2026-05-06T05:59:06.831168,0.98499446,0.0011606,8.5804,63.4275,256.1925,289.2565,0,U,25949,999,9676,0.00000000000000,-0.00000091,0.0000000000000,42669.018,1461.937,36340.405,36241.361,PAYLOAD,LARGE,US,1999-10-19,FRGUI,,5177577,322307141,0 TELSTAR 12 (ORION 2),1 25949U 99059A   26126.24938462 -.00000091  00000-0  00000+0 0  9996,2 25949   8.5804  63.4275 0011606 256.1925 289.2565  0.98499446 96765,25949
3.0,GENERATED VIA SPACE-TRACK.ORG API,2026-05-06T14:46:56,18 SPCS,OPS 9444 (DSCS 2-14),1979-098B,EARTH,TEME,UTC,SGP4,2026-05-06T12:41:18.878208,0.98349485,0.0003658,8.5816,305.9793,76.4939,281.0786,0,U,11622,999,11156,0.00000000000000,0.00000007,0.0000000000000,42712.381,1464.166,36349.87,36318.622,PAYLOAD,LARGE,US,1979-11-21,AFETR,,5177215,322299552,0 OPS 9444 (DSCS 2-14),1 11622U 79098B   26126.52869072  .00000007  00000-0  00000+0 0  9997,2 11622   8.5816 305.9793 0003658  76.4939 281.0786  0.98349485111564,11622
3.0,GENERATED VIA SPACE-TRACK.ORG API,2026-05-06T10:08:52,18 SPCS,LUCH 5A,2011-074B,EARTH,TEME,UTC,SGP4,2026-05-06T03:18:38.847168,1.00274555,0.00027282,8.6483,74.4136,320.6715,45.5719,0,U,37951,999,5263,0.00000000000000,-0.00000040,0.0000000000000,42163.955,1436.057,35797.323,35774.317,PAYLOAD,LARGE,CIS,2011-12-11,TTMTR,,5176958,322271693,0 LUCH 5A,1 37951U 11074B   26126.13794962 -.00000040  00000-0  00000-0 0  9991,2 37951   8.6483  74.4136 0002728 320.6715  45.5719  1.00274555 52630,37951
